ONEWEB-0340             
1 49206U 21083W   24267.84172682  .00000039  00000+0  65624-4 0  9992
2 49206  87.9060 101.1193 0001655  80.8111 279.3208 13.18683998148050
ONEWEB-0341             
1 49207U 21083X   24267.54612269 -.00000251  00000+0 -66921-3 0  9998
2 49207  87.9057 101.1912 0002358  79.1578 280.9819 13.18684492146745
ONEWEB-0342             
1 49208U 21083Y   24267.61501378  .00000176  00000+0  40145-3 0  9999
2 49208  87.9238  40.0868 0001951 102.3522 257.7829 13.20772067153418
ONEWEB-0343             
1 49209U 21083Z   24267.54140728 -.00000008  00000+0 -52199-4 0  9999
2 49209  87.9052 101.1934 0002362  87.0539 273.0863 13.18685657146797
ONEWEB-0344             
1 49210U 21083AA  24267.50444844  .00000170  00000+0  42920-3 0  9991
2 49210  87.8857  85.9415 0001977  77.6142 282.5208 13.13468659147975
ONEWEB-0345             
1 49211U 21083AB  24267.52190153 -.00000141  00000+0 -42228-3 0  9996
2 49211  87.8855  85.9104 0001996  76.0095 284.1256 13.13471012147989
ONEWEB-0346             
1 49212U 21083AC  24267.77849279 -.00000029  00000+0 -10575-3 0  9999
2 49212  87.9059 101.1536 0001461  73.2226 286.9066 13.18683774148052
ONEWEB-0348             
1 49213U 21083AD  24267.60553515  .00000064  00000+0  12477-3 0  9997
2 49213  87.9253  40.0706 0001737  75.4683 284.6643 13.20772689153448
